NORAD_CAT_ID,OBJECT_NAME,OBJECT_TYPE,EPOCH,MEAN_MOTION,ECCENTRICITY,INCLINATION,RA_OF_ASC_NODE,ARG_OF_PERICENTER,MEAN_ANOMALY,BSTAR,MEAN_MOTION_DOT,MEAN_MOTION_DDOT,TLE_LINE0,TLE_LINE1,TLE_LINE2,SEMIMAJOR_AXIS,PERIOD,APOGEE,PERIGEE,DECAYED
56496.0,STARLINK-5526,PAYLOAD,2024-07-12 05:37:20,14.98349792,0.000339,69.9987,190.9202,270.4344,89.6427,0.00025064,2.9e-05,0.0,0 STARLINK-5526,1 56496U 23064BA  24194.23426424  .00002900  00000-0  25064-3 0  9993,2 56496  69.9987 190.9202 0003390 270.4344  89.6427 14.98349792 65904,6950.132,96.106,574.353,569.641,0.0
56496.0,STARLINK-5526,PAYLOAD,2024-07-12 10:25:44,14.9835231,0.0003377,69.9987,190.4152,270.3076,89.7696,0.00027801,3.228e-05,0.0,0 STARLINK-5526,1 56496U 23064BA  24194.43454080  .00003228  00000-0  27801-3 0  9999,2 56496  69.9987 190.4152 0003377 270.3076  89.7696 14.98352310 65571,6950.124,96.106,574.336,569.642,0.0
56496.0,STARLINK-5526,PAYLOAD,2024-07-12 16:50:17,14.98341456,0.0003291,69.9989,189.7416,273.645,86.4333,0.00011598,1.291e-05,0.0,0 STARLINK-5526,1 56496U 23064BA  24194.70158970  .00001291  00000-0  11598-3 0  9992,2 56496  69.9989 189.7416 0003291 273.6450  86.4333 14.98341456 65979,6950.157,96.106,574.31,569.735,0.0
56496.0,STARLINK-5526,PAYLOAD,2024-07-13 05:39:22,14.98328,0.0002604,70.0,188.3965,261.2418,98.8446,-1.9822e-05,-3.29e-06,0.0,0 STARLINK-5526,1 56496U 23064BA  24195.23568022 -.00000329  00000-0 -19822-4 0  9996,2 56496  70.0000 188.3965 0002604 261.2418  98.8446 14.98328000 66056,6950.199,96.107,573.874,570.254,0.0
56496.0,STARLINK-5526,PAYLOAD,2024-07-13 10:27:47,14.98325757,0.0003023,69.9997,187.8916,272.6554,87.4259,-5.4888e-05,-7.48e-06,0.0,0 STARLINK-5526,1 56496U 23064BA  24195.43596200 -.00000748  00000-0 -54888-4 0  9993,2 56496  69.9997 187.8916 0003023 272.6554  87.4259 14.98325757 65726,6950.206,96.107,574.172,569.97,0.0
56496.0,STARLINK-5526,PAYLOAD,2024-07-13 16:52:19,14.98331133,0.000272,70.0,187.2193,275.2087,84.8761,-0.00010304,-1.322e-05,0.0,0 STARLINK-5526,1 56496U 23064BA  24195.70300091 -.00001322  00000-0 -10304-3 0  9997,2 56496  70.0000 187.2193 0002720 275.2087  84.8761 14.98331133 65766,6950.189,96.107,573.945,570.164,0.0
56496.0,STARLINK-5526,PAYLOAD,2024-07-14 05:41:23,14.98334447,0.0002941,70.0,185.8726,269.3269,90.7553,-0.00012732,-1.612e-05,0.0,0 STARLINK-5526,1 56496U 23064BA  24196.23707583 -.00001612  00000-0 -12732-3 0  9992,2 56496  70.0000 185.8726 0002941 269.3269  90.7553 14.98334447 66209,6950.179,96.107,574.088,570.0,0.0
56496.0,STARLINK-5526,PAYLOAD,2024-07-14 08:53:39,14.98333673,0.0002962,69.9998,185.5356,272.0257,88.0563,-0.0001576,-1.973e-05,0.0,0 STARLINK-5526,1 56496U 23064BA  24196.37059689 -.00001973  00000-0 -15760-3 0  9998,2 56496  69.9998 185.5356 0002962 272.0257  88.0563 14.98333673 65861,6950.182,96.107,574.105,569.988,0.0
56496.0,STARLINK-5526,PAYLOAD,2024-07-14 16:54:19,14.98327925,0.0003111,69.9996,184.6935,256.8065,103.2747,-9.3804e-05,-1.212e-05,0.0,0 STARLINK-5526,1 56496U 23064BA  24196.70439799 -.00001212  00000-0 -93804-4 0  9991,2 56496  69.9996 184.6935 0003111 256.8065 103.2747 14.98327925 65919,6950.199,96.107,574.227,569.902,0.0
56496.0,STARLINK-5526,PAYLOAD,2024-07-15 04:07:16,14.98319012,0.0003116,69.9994,183.515,272.0071,88.0732,5.7005e-05,5.87e-06,0.0,0 STARLINK-5526,1 56496U 23064BA  24197.17172297  .00000587  00000-0  57005-4 0  9995,2 56496  69.9994 183.5150 0003116 272.0071  88.0732 14.98319012 66346,6950.227,96.108,574.258,569.926,0.0
56496.0,STARLINK-5526,PAYLOAD,2024-07-15 08:55:40,14.98321318,0.0003102,69.9995,183.01,271.8653,88.215,8.0225e-05,8.64e-06,0.0,0 STARLINK-5526,1 56496U 23064BA  24197.37200229  .00000864  00000-0  80225-4 0  9992,2 56496  69.9995 183.0100 0003102 271.8653  88.2150 14.98321318 66017,6950.22,96.108,574.241,569.929,0.0
56496.0,STARLINK-5526,PAYLOAD,2024-07-15 16:56:21,14.98324502,0.0003102,69.9996,182.1685,271.9166,88.1637,9.3021e-05,1.017e-05,0.0,0 STARLINK-5526,1 56496U 23064BA  24197.70580190  .00001017  00000-0  93021-4 0  9996,2 56496  69.9996 182.1685 0003102 271.9166  88.1637 14.98324502 66068,6950.21,96.107,574.231,569.919,0.0
56496.0,STARLINK-5526,PAYLOAD,2024-07-16 05:45:25,14.98328834,0.0003086,69.9996,180.8217,270.9908,89.0898,9.3296e-05,1.02e-05,0.0,0 STARLINK-5526,1 56496U 23064BA  24198.23988054  .00001020  00000-0  93296-4 0  9994,2 56496  69.9996 180.8217 0003086 270.9908  89.0898 14.98328834 66508,6950.196,96.107,574.206,569.917,0.0
56496.0,STARLINK-5526,PAYLOAD,2024-07-16 08:57:41,14.98330865,0.0003067,69.9996,180.4849,270.884,89.1968,0.00011447,1.273e-05,0.0,0 STARLINK-5526,1 56496U 23064BA  24198.37339895  .00001273  00000-0  11447-3 0  9999,2 56496  69.9996 180.4849 0003067 270.8840  89.1968 14.98330865 66166,6950.19,96.107,574.187,569.924,0.0
56496.0,STARLINK-5526,PAYLOAD,2024-07-17 05:47:26,14.98330125,0.0003028,69.9997,178.2971,270.3672,89.7141,0.00011698,1.303e-05,0.0,0 STARLINK-5526,1 56496U 23064BA  24199.24128102  .00001303  00000-0  11698-3 0  9995,2 56496  69.9997 178.2971 0003028 270.3672  89.7141 14.98330125 66655,6950.193,96.107,574.162,569.953,0.0
56496.0,STARLINK-5526,PAYLOAD,2024-07-17 08:59:42,14.98331743,0.0003004,69.9998,177.9604,270.4775,89.604,0.0001333,1.498e-05,0.0,0 STARLINK-5526,1 56496U 23064BA  24199.37479973  .00001498  00000-0  13330-3 0  9994,2 56496  69.9998 177.9604 0003004 270.4775  89.6040 14.98331743 66311,6950.188,96.107,574.14,569.965,0.0
56496.0,STARLINK-5526,PAYLOAD,2024-07-17 15:24:15,14.98330236,0.0002942,69.9999,177.287,271.1899,88.8923,7.2819e-05,7.76e-06,0.0,0 STARLINK-5526,1 56496U 23064BA  24199.64184333  .00000776  00000-0  72819-4 0  9993,2 56496  69.9999 177.2870 0002942 271.1899  88.8923 14.98330236 66356,6950.192,96.107,574.102,570.012,0.0
56496.0,STARLINK-5526,PAYLOAD,2024-07-18 09:01:43,14.98332093,0.0002791,70.0003,175.4367,267.2675,92.8164,4.7619e-05,4.75e-06,0.0,0 STARLINK-5526,1 56496U 23064BA  24200.37620277  .00000475  00000-0  47619-4 0  9994,2 56496  70.0003 175.4367 0002791 267.2675  92.8164 14.98332093 66823,6950.186,96.107,573.991,570.112,0.0
56496.0,STARLINK-5526,PAYLOAD,2024-07-18 15:26:16,14.98329258,0.0002779,70.0004,174.7633,267.9931,92.091,2.0196e-05,1.48e-06,0.0,0 STARLINK-5526,1 56496U 23064BA  24200.64324544  .00000148  00000-0  20196-4 0  9990,2 56496  70.0004 174.7633 0002779 267.9931  92.0910 14.98329258 66505,6950.195,96.107,573.992,570.129,0.0
56496.0,STARLINK-5526,PAYLOAD,2024-07-19 07:27:36,14.98332617,0.0002775,70.0004,173.0803,266.0217,94.0625,4.5412e-05,4.49e-06,0.0,0 STARLINK-5526,1 56496U 23064BA  24201.31084265  .00000449  00000-0  45412-4 0  9990,2 56496  70.0004 173.0803 0002775 266.0217  94.0625 14.98332617 66608,6950.185,96.107,573.978,570.121,0.0
56496.0,STARLINK-5526,PAYLOAD,2024-07-19 15:28:17,14.98328369,0.0002777,70.0004,172.2384,268.9989,91.0852,2.2529e-06,-6.6e-07,0.0,0 STARLINK-5526,1 56496U 23064BA  24201.64464600 -.00000066  00000-0  22529-5 0  9992,2 56496  70.0004 172.2384 0002777 268.9989  91.0852 14.98328369 67016,6950.198,96.107,573.993,570.133,0.0
56496.0,STARLINK-5526,PAYLOAD,2024-07-20 07:29:38,14.98328249,0.0002804,70.0004,170.5553,266.6494,93.4345,3.505e-05,3.25e-06,0.0,0 STARLINK-5526,1 56496U 23064BA  24202.31224621  .00000325  00000-0  35050-4 0  9993,2 56496  70.0004 170.5553 0002804 266.6494  93.4345 14.98328249 66752,6950.198,96.107,574.012,570.114,0.0
56496.0,STARLINK-5526,PAYLOAD,2024-07-20 18:42:34,14.98332681,0.0002824,70.0004,169.3779,269.4984,90.5851,-8.6551e-07,-1.03e-06,0.0,0 STARLINK-5526,1 56496U 23064BA  24202.77956483 -.00000103  00000-0 -86551-6 0  9991,2 56496  70.0004 169.3779 0002824 269.4984  90.5851 14.98332681 67188,6950.185,96.107,574.012,570.087,0.0
56496.0,STARLINK-5526,PAYLOAD,2024-07-20 21:54:50,14.98329977,0.0002864,70.0004,169.0412,268.2709,91.8122,6.0505e-05,6.29e-06,0.0,0 STARLINK-5526,1 56496U 23064BA  24202.91308534  .00000629  00000-0  60505-4 0  9995,2 56496  70.0004 169.0412 0002864 268.2709  91.8122 14.98329977 66846,6950.193,96.107,574.048,570.067,0.0
56496.0,STARLINK-5526,PAYLOAD,2024-07-21 07:31:38,14.98333332,0.0002911,70.0003,168.0313,268.6423,91.4402,5.7273e-05,5.9e-06,0.0,0 STARLINK-5526,1 56496U 23064BA  24203.31364310  .00000590  00000-0  57273-4 0  9999,2 56496  70.0003 168.0313 0002911 268.6423  91.4402 14.98333332 66908,6950.183,96.107,574.071,570.024,0.0
56496.0,STARLINK-5526,PAYLOAD,2024-07-21 21:56:51,14.98329436,0.0002915,70.0003,166.5165,268.6849,91.3976,7.7081e-05,8.27e-06,0.0,0 STARLINK-5526,1 56496U 23064BA  24203.91448515  .00000827  00000-0  77081-4 0  9997,2 56496  70.0003 166.5165 0002915 268.6849  91.3976 14.98329436 66996,6950.195,96.107,574.086,570.034,0.0
56496.0,STARLINK-5526,PAYLOAD,2024-07-22 04:21:23,14.98331584,0.000304,69.9999,165.8422,269.7059,90.3752,5.0427e-05,5.09e-06,0.0,0 STARLINK-5526,1 56496U 23064BA  24204.18152439  .00000509  00000-0  50427-4 0  9996,2 56496  69.9999 165.8422 0003040 269.7059  90.3752 14.98331584 67393,6950.188,96.107,574.166,569.94,0.0
56496.0,STARLINK-5526,PAYLOAD,2024-07-22 07:33:39,14.98333571,0.0002901,70.0004,165.5067,268.5434,91.5393,8.8359e-05,9.62e-06,0.0,0 STARLINK-5526,1 56496U 23064BA  24204.31504212  .00000962  00000-0  88359-4 0  9999,2 56496  70.0004 165.5067 0002901 268.5434  91.5393 14.98333571 67059,6950.182,96.107,574.063,570.031,0.0
56496.0,STARLINK-5526,PAYLOAD,2024-07-22 21:58:52,14.98332414,0.0002902,70.0002,163.9901,270.0304,90.0523,5.2473e-05,5.33e-06,0.0,0 STARLINK-5526,1 56496U 23064BA  24204.91588301  .00000533  00000-0  52473-4 0  9998,2 56496  70.0002 163.9901 0002902 270.0304  90.0523 14.98332414 67145,6950.185,96.107,574.067,570.033,0.0
56496.0,STARLINK-5526,PAYLOAD,2024-07-23 04:23:24,14.98337682,0.0002777,70.0005,163.3185,268.0419,92.0422,0.00010172,1.121e-05,0.0,0 STARLINK-5526,1 56496U 23064BA  24205.18291818  .00001121  00000-0  10172-3 0  9995,2 56496  70.0005 163.3185 0002777 268.0419  92.0422 14.98337682 67546,6950.169,96.107,573.964,570.104,0.0
